CCSDS_OMM_VERS,COMMENT,CREATION_DATE,ORIGINATOR,OBJECT_NAME,OBJECT_ID,CENTER_NAME,REF_FRAME,TIME_SYSTEM,MEAN_ELEMENT_THEORY,EPOCH,MEAN_MOTION,ECCENTRICITY,INCLINATION,RA_OF_ASC_NODE,ARG_OF_PERICENTER,MEAN_ANOMALY,EPHEMERIS_TYPE,CLASSIFICATION_TYPE,NORAD_CAT_ID,ELEMENT_SET_NO,REV_AT_EPOCH,BSTAR,MEAN_MOTION_DOT,MEAN_MOTION_DDOT,SEMIMAJOR_AXIS,PERIOD,APOAPSIS,PERIAPSIS,OBJECT_TYPE,RCS_SIZE,COUNTRY_CODE,LAUNCH_DATE,SITE,DECAY_DATE,FILE,GP_ID,TLE_LINE0,TLE_LINE1,TLE_LINE2
2,GENERATED VIA SPACE-TRACK.ORG API,2015-05-22T07:13:43,18 SPCS,GALILEO-FM2,2011-060B,EARTH,TEME,UTC,SGP4,2015-05-21T21:23:30.681311,1.70474452,0.0005821,55.2868,92.9948,298.3284,78.5529,0,U,37847,999,2230,0.0,-1.6e-07,0,29600.267,844.701,23239.362,23204.902,PAYLOAD,LARGE,ESA,2011-10-21,FRGUI,,1875012,99218811,0 GALILEO-FM2,1 37847U 11060B   15141.89132733 -.00000016  00000-0  00000+0 0  9992,2 37847 055.2868 092.9948 0005821 298.3284 078.5529 01.70474452 22305
2,GENERATED VIA SPACE-TRACK.ORG API,2015-05-24T15:21:37,18 SPCS,GALILEO-FM2,2011-060B,EARTH,TEME,UTC,SGP4,2015-05-24T11:25:59.073888,1.70474507,0.000575,55.2883,92.9221,298.9287,224.4598,0,U,37847,999,2234,0.0,-1e-07,0,29600.261,844.701,23239.146,23205.105,PAYLOAD,LARGE,ESA,2011-10-21,FRGUI,,1876099,99239317,0 GALILEO-FM2,1 37847U 11060B   15144.47637817 -.00000010  00000-0  00000+0 0  9996,2 37847 055.2883 092.9221 0005750 298.9287 224.4598 01.70474507 22349
2,GENERATED VIA SPACE-TRACK.ORG API,2015-05-29T15:23:08,18 SPCS,GALILEO-FM2,2011-060B,EARTH,TEME,UTC,SGP4,2015-05-29T02:12:48.080159,1.70474493,0.0005616,55.2909,92.7924,299.4071,176.8359,0,U,37847,999,2242,0.0,-9e-08,0,29600.262,844.701,23238.751,23205.504,PAYLOAD,LARGE,ESA,2011-10-21,FRGUI,,1878445,99282971,0 GALILEO-FM2,1 37847U 11060B   15149.09222315 -.00000009  00000-0  00000+0 0  9990,2 37847 055.2909 092.7924 0005616 299.4071 176.8359 01.70474493 22422
2,GENERATED VIA SPACE-TRACK.ORG API,2015-06-02T23:03:48,18 SPCS,GALILEO-FM2,2011-060B,EARTH,TEME,UTC,SGP4,2015-06-02T17:54:14.706720,1.70474399,0.0005481,55.2937,92.6613,299.9003,152.4788,0,U,37847,999,2250,0.0,-1e-07,0,29600.273,844.701,23238.362,23205.914,PAYLOAD,LARGE,ESA,2011-10-21,FRGUI,,1880357,99320604,0 GALILEO-FM2,1 37847U 11060B   15153.74600355 -.00000010  00000-0  00000+0 0  9993,2 37847 055.2937 092.6613 0005481 299.9003 152.4788 01.70474399 22507
2,GENERATED VIA SPACE-TRACK.ORG API,2015-06-05T07:20:10,18 SPCS,GALILEO-FM2,2011-060B,EARTH,TEME,UTC,SGP4,2015-06-05T02:16:39.507743,1.70474342,0.00054,55.295,92.5954,300.3,153.6535,0,U,37847,999,2254,0.0,-7e-08,0,29600.28,844.701,23238.129,23206.161,PAYLOAD,LARGE,ESA,2011-10-21,FRGUI,,1881400,99340695,0 GALILEO-FM2,1 37847U 11060B   15156.09490171 -.00000007  00000-0  00000+0 0  9993,2 37847 055.2950 092.5954 0005400 300.3000 153.6535 01.70474342 22549
2,GENERATED VIA SPACE-TRACK.ORG API,2015-06-08T15:19:30,18 SPCS,GALILEO-FM2,2011-060B,EARTH,TEME,UTC,SGP4,2015-06-08T03:49:44.395103,1.70474295,0.0005305,55.2967,92.5092,300.8103,233.9851,0,U,37847,999,2259,0.0,-1e-07,0,29600.285,844.702,23237.853,23206.447,PAYLOAD,LARGE,ESA,2011-10-21,FRGUI,,1882884,99370668,0 GALILEO-FM2,1 37847U 11060B   15159.15954161 -.00000010  00000-0  00000+0 0  9991,2 37847 055.2967 092.5092 0005305 300.8103 233.9851 01.70474295 22598
2,GENERATED VIA SPACE-TRACK.ORG API,2015-06-10T23:19:26,18 SPCS,GALILEO-FM2,2011-060B,EARTH,TEME,UTC,SGP4,2015-06-10T12:27:55.423871,1.70474287,0.0005229,55.298,92.4427,301.2386,241.8524,0,U,37847,999,2263,0.0,-2.6e-07,0,29600.286,844.702,23237.629,23206.673,PAYLOAD,LARGE,ESA,2011-10-21,FRGUI,,1884029,99392099,0 GALILEO-FM2,1 37847U 11060B   15161.51939148 -.00000026  00000-0  00000+0 0  9999,2 37847 055.2980 092.4427 0005229 301.2386 241.8524 01.70474287 22638
2,GENERATED VIA SPACE-TRACK.ORG API,2015-06-16T23:47:19,18 SPCS,GALILEO-FM2,2011-060B,EARTH,TEME,UTC,SGP4,2015-06-12T15:24:46.228608,1.70474301,0.0005136,55.2993,92.3828,301.7222,104.1874,0,U,37847,999,2267,0.0,-4.5e-07,0,29600.284,844.702,23237.352,23206.947,PAYLOAD,LARGE,ESA,2011-10-21,FRGUI,,1885868,99463471,0 GALILEO-FM2,1 37847U 11060B   15163.64220172 -.00000045 +00000-0 +00000-0 0  9997,2 37847 055.2993 092.3828 0005136 301.7222 104.1874 01.70474301022677
2,GENERATED VIA SPACE-TRACK.ORG API,2015-06-16T23:06:34,18 SPCS,GALILEO-FM2,2011-060B,EARTH,TEME,UTC,SGP4,2015-06-12T20:39:41.512032,1.70474309,0.0005128,55.2994,92.3767,301.745,238.3832,0,U,37847,999,2255,0.0,-4.6e-07,0,29600.283,844.702,23237.328,23206.969,PAYLOAD,LARGE,ESA,2011-10-21,FRGUI,,1885814,99452465,0 GALILEO-FM2,1 37847U 11060B   15163.86089713 -.00000046 +00000-0 +00000-0 0  9996,2 37847 055.2994 092.3767 0005128 301.7450 238.3832 01.70474309022553
2,GENERATED VIA SPACE-TRACK.ORG API,2015-06-16T18:53:46,18 SPCS,GALILEO-FM2,2011-060B,EARTH,TEME,UTC,SGP4,2015-06-14T14:24:54.910656,1.7047435,0.0005065,55.3004,92.3277,302.1601,225.6868,0,U,37847,999,2258,0.0,-5.3e-07,0,29600.279,844.701,23237.136,23207.151,PAYLOAD,LARGE,ESA,2011-10-21,FRGUI,,1885706,99440534,0 GALILEO-FM2,1 37847U 11060B   15165.60063554 -.00000053 +00000-0 +00000-0 0  9993,2 37847 055.3004 092.3277 0005065 302.1601 225.6868 01.70474350022582
2,GENERATED VIA SPACE-TRACK.ORG API,2015-06-16T18:30:49,18 SPCS,GALILEO-FM2,2011-060B,EARTH,TEME,UTC,SGP4,2015-06-15T05:14:01.497696,1.70474367,0.0005042,55.3008,92.3103,302.2865,244.4963,0,U,37847,999,2271,0.0,-5.4e-07,0,29600.277,844.701,23237.067,23207.218,PAYLOAD,LARGE,ESA,2011-10-21,FRGUI,,1885698,99430919,0 GALILEO-FM2,1 37847U 11060B   15166.21807289 -.00000054 +00000-0 +00000-0 0  9993,2 37847 055.3008 092.3103 0005042 302.2865 244.4963 01.70474367022710
2,GENERATED VIA SPACE-TRACK.ORG API,2015-06-17T23:12:13,18 SPCS,GALILEO-FM2,2011-060B,EARTH,TEME,UTC,SGP4,2015-06-17T13:27:47.363904,1.70474437,0.0004957,55.3021,92.2444,302.6949,241.9763,0,U,37847,999,2275,0.0,-4.8e-07,0,29600.269,844.701,23236.807,23207.461,PAYLOAD,LARGE,ESA,2011-10-21,FRGUI,,1886495,99512576,0 GALILEO-FM2,1 37847U 11060B   15168.56096486 -.00000048  00000-0  00000+0 0  9994,2 37847 055.3021 092.2444 0004957 302.6949 241.9763 01.70474437 22755
2,GENERATED VIA SPACE-TRACK.ORG API,2015-06-25T07:06:54,18 SPCS,GALILEO-FM2,2011-060B,EARTH,TEME,UTC,SGP4,2015-06-25T03:07:16.578335,1.70474519,0.000472,55.3066,92.0314,303.5399,206.4618,0,U,37847,999,2288,0.0,-3.6e-07,0,29600.259,844.701,23236.095,23208.153,PAYLOAD,LARGE,ESA,2011-10-21,FRGUI,,1889865,99600183,0 GALILEO-FM2,1 37847U 11060B   15176.13005299 -.00000036  00000-0  00000+0 0  9995,2 37847 055.3066 092.0314 0004720 303.5399 206.4618 01.70474519 22885
2,GENERATED VIA SPACE-TRACK.ORG API,2015-07-01T07:34:55,18 SPCS,GALILEO-FM2,2011-060B,EARTH,TEME,UTC,SGP4,2015-07-01T01:17:36.470111,1.7047441,0.0004519,55.3088,91.8646,304.0888,241.5226,0,U,37847,999,2298,0.0,-3.1e-07,0,29600.272,844.701,23235.513,23208.76,PAYLOAD,LARGE,ESA,2011-10-21,FRGUI,,1892623,99654497,0 GALILEO-FM2,1 37847U 11060B   15182.05389433 -.00000031  00000-0  00000+0 0  9993,2 37847 055.3088 091.8646 0004519 304.0888 241.5226 01.70474410 22985
2,GENERATED VIA SPACE-TRACK.ORG API,2015-07-04T23:19:24,18 SPCS,GALILEO-FM2,2011-060B,EARTH,TEME,UTC,SGP4,2015-07-04T13:20:51.864576,1.7047434,0.0004392,55.3109,91.7659,304.454,230.5786,0,U,37847,999,2304,0.0,-2.5e-07,0,29600.28,844.701,23235.145,23209.144,PAYLOAD,LARGE,ESA,2011-10-21,FRGUI,,1894278,99686710,0 GALILEO-FM2,1 37847U 11060B   15185.55615584 -.00000025  00000-0  00000+0 0  9993,2 37847 055.3109 091.7659 0004392 304.4540 230.5786 01.70474340 23049
2,GENERATED VIA SPACE-TRACK.ORG API,2015-07-09T22:53:06,18 SPCS,GALILEO-FM2,2011-060B,EARTH,TEME,UTC,SGP4,2015-07-09T13:54:57.528863,1.70474227,0.0004378,55.3154,91.624,305.0445,73.1296,0,U,37847,999,2313,0.0,-5.5e-07,0,29600.293,844.702,23235.117,23209.199,PAYLOAD,LARGE,ESA,2011-10-21,FRGUI,,1896656,99730489,0 GALILEO-FM2,1 37847U 11060B   15190.57983251 -.00000055  00000-0  00000+0 0  9993,2 37847 055.3154 091.6240 0004378 305.0445 073.1296 01.70474227 23130
2,GENERATED VIA SPACE-TRACK.ORG API,2015-07-13T23:22:55,18 SPCS,GALILEO-FM2,2011-060B,EARTH,TEME,UTC,SGP4,2015-07-13T08:49:44.050944,1.70474426,0.0004108,55.3173,91.5175,305.8084,237.1827,0,U,37847,999,2319,0.0,-6.3e-07,0,29600.27,844.701,23234.295,23209.975,PAYLOAD,LARGE,ESA,2011-10-21,FRGUI,,1898568,99767212,0 GALILEO-FM2,1 37847U 11060B   15194.36787096 -.00000063  00000-0  00000+0 0  9992,2 37847 055.3173 091.5175 0004108 305.8084 237.1827 01.70474426 23194
2,GENERATED VIA SPACE-TRACK.ORG API,2015-07-16T21:06:16,18 SPCS,GALILEO-FM2,2011-060B,EARTH,TEME,UTC,SGP4,2015-07-16T15:07:08.982047,1.70474483,0.0003958,55.3194,91.4256,306.0799,78.9356,0,U,37847,999,2325,0.0,-5e-07,0,29600.263,844.701,23233.844,23210.413,PAYLOAD,LARGE,ESA,2011-10-21,FRGUI,,1899862,99792824,0 GALILEO-FM2,1 37847U 11060B   15197.62996507 -.00000050  00000-0  00000+0 0  9999,2 37847 055.3194 091.4256 0003958 306.0799 078.9356 01.70474483 23252
2,GENERATED VIA SPACE-TRACK.ORG API,2015-07-22T07:17:07,18 SPCS,GALILEO-FM2,2011-060B,EARTH,TEME,UTC,SGP4,2015-07-22T02:47:38.713056,1.70474532,0.000374,55.3228,91.2711,306.2664,205.9176,0,U,37847,999,2334,0.0,-3.9e-07,0,29600.258,844.7,23233.193,23211.052,PAYLOAD,LARGE,ESA,2011-10-21,FRGUI,,1902173,99836767,0 GALILEO-FM2,1 37847U 11060B   15203.11642029 -.00000039  00000-0  00000+0 0  9995,2 37847 055.3228 091.2711 0003740 306.2664 205.9176 01.70474532 23343
2,GENERATED VIA SPACE-TRACK.ORG API,2015-07-26T15:27:00,18 SPCS,GALILEO-FM2,2011-060B,EARTH,TEME,UTC,SGP4,2015-07-26T06:53:58.458623,1.70474464,0.000359,55.3253,91.1536,306.1608,245.9032,0,U,37847,999,2341,0.0,-3.2e-07,0,29600.266,844.701,23232.757,23211.504,PAYLOAD,LARGE,ESA,2011-10-21,FRGUI,,1904220,99875996,0 GALILEO-FM2,1 37847U 11060B   15207.28748216 -.00000032  00000-0  00000+0 0  9995,2 37847 055.3253 091.1536 0003590 306.1608 245.9032 01.70474464 23412
